[Satellite]
VERSION=1.1
NAME=TABLETSAT-AURORA
NICKNAME=TABLETSAT-AURORA
TLE1=1 40017U 14033H   17186.23508467  .00000045  00000-0  10162-4 0  9994
TLE2=2 40017  97.9435 106.9343 0022158 268.0796  91.7885 14.92790593165653
